{
  "type": "FeatureCollection",
  "features": [
    {
      "type": "Feature",
      "properties": {
        "norad_id": 34056,
        "name": "COSMOS 2251 DEB",
        "group": "cosmos-2251-debris",
        "lat": -56.38681403758466,
        "lon": 59.773736596974466,
        "alt_km": 917.0022356947275,
        "timestamp": "2025-12-07T18:50:17.108469+00:00",
        "meta_object_name": "COSMOS 2251 DEB",
        "meta_object_id": "1993-036JT",
        "meta_epoch": "2025-12-07T01:20:40.806240",
        "meta_mean_motion": 14.20517621,
        "meta_eccentricity": 0.01243625,
        "meta_inclination": 74.0601,
        "meta_ra_of_asc_node": 86.54,
        "meta_arg_of_pericenter": 135.8733,
        "meta_mean_anomaly": 37.8359,
        "meta_ephemeris_type": 0,
        "meta_classification_type": "U",
        "meta_norad_cat_id": 34056,
        "meta_element_set_no": 999,
        "meta_rev_at_epoch": 86330,
        "meta_bstar": 0.0018300204,
        "meta_mean_motion_dot": 4.227e-05,
        "meta_mean_motion_ddot": 0,
        "tle_line1": "1 34056U 93036JT  25341.05602785  .00004227  00000+0  18300-2 0  9995",
        "tle_line2": "2 34056  74.0601  86.5400 0124362 135.8733  37.8359 14.20517621863303"
      },
      "geometry": {
        "type": "Point",
        "coordinates": [
          59.773736596974466,
          -56.38681403758466
        ]
      }
    },
    {
      "type": "Feature",
      "properties": {
        "norad_id": 34058,
        "name": "COSMOS 2251 DEB",
        "group": "cosmos-2251-debris",
        "lat": 21.18259937451647,
        "lon": -0.26845760465036084,
        "alt_km": 792.0414209030569,
        "timestamp": "2025-12-07T18:50:17.108479+00:00",
        "meta_object_name": "COSMOS 2251 DEB",
        "meta_object_id": "1993-036JV",
        "meta_epoch": "2025-12-07T01:06:56.602944",
        "meta_mean_motion": 13.56063932,
        "meta_eccentricity": 0.03781989,
        "meta_inclination": 73.9319,
        "meta_ra_of_asc_node": 187.3407,
        "meta_arg_of_pericenter": 183.6635,
        "meta_mean_anomaly": 332.3358,
        "meta_ephemeris_type": 0,
        "meta_classification_type": "U",
        "meta_norad_cat_id": 34058,
        "meta_element_set_no": 999,
        "meta_rev_at_epoch": 83065,
        "meta_bstar": 0.000905053,
        "meta_mean_motion_dot": 9.84e-06,
        "meta_mean_motion_ddot": 0,
        "tle_line1": "1 34058U 93036JV  25341.04648846  .00000984  00000+0  90505-3 0  9998",
        "tle_line2": "2 34058  73.9319 187.3407 0378198 183.6635 332.3358 13.56063932830659"
      },
      "geometry": {
        "type": "Point",
        "coordinates": [
          -0.26845760465036084,
          21.18259937451647
        ]
      }
    },
    {
      "type": "Feature",
      "properties": {
        "norad_id": 34059,
        "name": "COSMOS 2251 DEB",
        "group": "cosmos-2251-debris",
        "lat": 73.4941465464231,
        "lon": -59.37591146074544,
        "alt_km": 722.1078660637813,
        "timestamp": "2025-12-07T18:50:17.108489+00:00",
        "meta_object_name": "COSMOS 2251 DEB",
        "meta_object_id": "1993-036JW",
        "meta_epoch": "2025-12-07T07:22:50.279232",
        "meta_mean_motion": 14.52900306,
        "meta_eccentricity": 0.0018778,
        "meta_inclination": 74.0374,
        "meta_ra_of_asc_node": 196.5238,
        "meta_arg_of_pericenter": 274.3321,
        "meta_mean_anomaly": 203.9163,
        "meta_ephemeris_type": 0,
        "meta_classification_type": "U",
        "meta_norad_cat_id": 34059,
        "meta_element_set_no": 999,
        "meta_rev_at_epoch": 88380,
        "meta_bstar": 0.0011953132,
        "meta_mean_motion_dot": 4.908e-05,
        "meta_mean_motion_ddot": 0,
        "tle_line1": "1 34059U 93036JW  25341.30752638  .00004908  00000+0  11953-2 0  9992",
        "tle_line2": "2 34059  74.0374 196.5238 0018778 274.3321 203.9163 14.52900306883806"
      },
      "geometry": {
        "type": "Point",
        "coordinates": [
          -59.37591146074544,
          73.4941465464231
        ]
      }
    },
    {
      "type": "Feature",
      "properties": {
        "norad_id": 34061,
        "name": "COSMOS 2251 DEB",
        "group": "cosmos-2251-debris",
        "lat": -51.898686720962466,
        "lon": -108.85821538016702,
        "alt_km": 753.7206224327892,
        "timestamp": "2025-12-07T18:50:17.108499+00:00",
        "meta_object_name": "COSMOS 2251 DEB",
        "meta_object_id": "1993-036JY",
        "meta_epoch": "2025-12-07T06:27:25.907904",
        "meta_mean_motion": 14.40338282,
        "meta_eccentricity": 0.00203059,
        "meta_inclination": 74.0392,
        "meta_ra_of_asc_node": 273.501,
        "meta_arg_of_pericenter": 351.2751,
        "meta_mean_anomaly": 160.203,
        "meta_ephemeris_type": 0,
        "meta_classification_type": "U",
        "meta_norad_cat_id": 34061,
        "meta_element_set_no": 999,
        "meta_rev_at_epoch": 88101,
        "meta_bstar": 0.00067943987,
        "meta_mean_motion_dot": 2.134e-05,
        "meta_mean_motion_ddot": 0,
        "tle_line1": "1 34061U 93036JY  25341.26904986  .00002134  00000+0  67944-3 0  9996",
        "tle_line2": "2 34061  74.0392 273.5010 0020305 351.2751 160.2030 14.40338282881018"
      },
      "geometry": {
        "type": "Point",
        "coordinates": [
          -108.85821538016702,
          -51.898686720962466
        ]
      }
    },
    {
      "type": "Feature",
      "properties": {
        "norad_id": 34062,
        "name": "COSMOS 2251 DEB",
        "group": "cosmos-2251-debris",
        "lat": 68.21945439274742,
        "lon": -78.01127164626766,
        "alt_km": 655.9345491261456,
        "timestamp": "2025-12-07T18:50:17.108509+00:00",
        "meta_object_name": "COSMOS 2251 DEB",
        "meta_object_id": "1993-036JZ",
        "meta_epoch": "2025-12-06T18:05:55.330368",
        "meta_mean_motion": 14.78294095,
        "meta_eccentricity": 0.00757546,
        "meta_inclination": 74.0277,
        "meta_ra_of_asc_node": 149.8045,
        "meta_arg_of_pericenter": 229.9952,
        "meta_mean_anomaly": 152.053,
        "meta_ephemeris_type": 0,
        "meta_classification_type": "U",
        "meta_norad_cat_id": 34062,
        "meta_element_set_no": 999,
        "meta_rev_at_epoch": 88507,
        "meta_bstar": 0.0044741975,
        "meta_mean_motion_dot": 0.00034244,
        "meta_mean_motion_ddot": 0,
        "tle_line1": "1 34062U 93036JZ  25340.75411262  .00034244  00000+0  44742-2 0  9997",
        "tle_line2": "2 34062  74.0277 149.8045 0075754 229.9952 152.0530 14.78294095885074"
      },
      "geometry": {
        "type": "Point",
        "coordinates": [
          -78.01127164626766,
          68.21945439274742
        ]
      }
    },
    {
      "type": "Feature",
      "properties": {
        "norad_id": 34064,
        "name": "COSMOS 2251 DEB",
        "group": "cosmos-2251-debris",
        "lat": -59.36525759072742,
        "lon": 128.97061789438527,
        "alt_km": 761.2947917931006,
        "timestamp": "2025-12-07T18:50:17.108519+00:00",
        "meta_object_name": "COSMOS 2251 DEB",
        "meta_object_id": "1993-036KB",
        "meta_epoch": "2025-12-07T06:45:17.953920",
        "meta_mean_motion": 14.42307461,
        "meta_eccentricity": 0.00219276,
        "meta_inclination": 74.0332,
        "meta_ra_of_asc_node": 280.9935,
        "meta_arg_of_pericenter": 348.1186,
        "meta_mean_anomaly": 162.5011,
        "meta_ephemeris_type": 0,
        "meta_classification_type": "U",
        "meta_norad_cat_id": 34064,
        "meta_element_set_no": 999,
        "meta_rev_at_epoch": 88063,
        "meta_bstar": 0.0010152007,
        "meta_mean_motion_dot": 3.336e-05,
        "meta_mean_motion_ddot": 0,
        "tle_line1": "1 34064U 93036KB  25341.28145780  .00003336  00000+0  10152-2 0  9993",
        "tle_line2": "2 34064  74.0332 280.9935 0021927 348.1186 162.5011 14.42307461880639"
      },
      "geometry": {
        "type": "Point",
        "coordinates": [
          128.97061789438527,
          -59.36525759072742
        ]
      }
    },
    {
      "type": "Feature",
      "properties": {
        "norad_id": 34065,
        "name": "COSMOS 2251 DEB",
        "group": "cosmos-2251-debris",
        "lat": -26.11517298063409,
        "lon": -100.81963794257781,
        "alt_km": 760.585054185527,
        "timestamp": "2025-12-07T18:50:17.108529+00:00",
        "meta_object_name": "COSMOS 2251 DEB",
        "meta_object_id": "1993-036KC",
        "meta_epoch": "2025-12-07T06:18:50.035968",
        "meta_mean_motion": 14.38053156,
        "meta_eccentricity": 0.00160969,
        "meta_inclination": 74.0357,
        "meta_ra_of_asc_node": 268.2081,
        "meta_arg_of_pericenter": 6.8473,
        "meta_mean_anomaly": 145.6318,
        "meta_ephemeris_type": 0,
        "meta_classification_type": "U",
        "meta_norad_cat_id": 34065,
        "meta_element_set_no": 999,
        "meta_rev_at_epoch": 88126,
        "meta_bstar": 0.00032727178,
        "meta_mean_motion_dot": 9.66e-06,
        "meta_mean_motion_ddot": 0,
        "tle_line1": "1 34065U 93036KC  25341.26307912  .00000966  00000+0  32727-3 0  9998",
        "tle_line2": "2 34065  74.0357 268.2081 0016096   6.8473 145.6318 14.38053156881262"
      },
      "geometry": {
        "type": "Point",
        "coordinates": [
          -100.81963794257781,
          -26.11517298063409
        ]
      }
    }
  ]
}